FENGYUN 1C DEB          
1 32330U 99025CXX 17345.92144142  .00000545  00000-0  36751-3 0  9992
2 32330  98.0616 224.9188 0186561 109.1889 252.9569 13.95717372226700
